{
 "type": "FeatureCollection",
 "features": [
  {
   "type": "Feature",
   "properties": {
    "nombre": "Predio de estudio - corredor bananero",
    "area_ha": 284.1,
    "tesela": "T18PWS"
   },
   "geometry": {
    "type": "Polygon",
    "coordinates": [
     [
      [
       -74.20535552607986,
       10.697282405804883
      ],
      [
       -74.20295925706974,
       10.704510984117025
      ],
      [
       -74.19473614972777,
       10.702048158081496
      ],
      [
       -74.19146424290345,
       10.69453372341103
      ],
      [
       -74.19258585984105,
       10.685312413559473
      ],
      [
       -74.20173300777115,
       10.68388898109434
      ],
      [
       -74.20665914330978,
       10.688242348889991
      ],
      [
       -74.20535552607986,
       10.697282405804883
      ]
     ]
    ]
   }
  }
 ]
}