{
 "type": "FeatureCollection",
 "features": [
  {
   "type": "Feature",
   "properties": {
    "nombre": "Predio estudio",
    "area_ha": 73.5
   },
   "geometry": {
    "type": "Polygon",
    "coordinates": [
     [
      [
       -73.81245474426898,
       10.408377825692405
      ],
      [
       -73.81437057636373,
       10.40989870867882
      ],
      [
       -73.82204359649852,
       10.40984664403329
      ],
      [
       -73.82299687482048,
       10.408242583889669
      ],
      [
       -73.82190729865941,
       10.402893425981732
      ],
      [
       -73.8171967065562,
       10.40327796538216
      ],
      [
       -73.81300954832726,
       10.40480306181932
      ],
      [
       -73.81245474426898,
       10.408377825692405
      ]
     ]
    ]
   }
  }
 ]
}